start=new Date('2023-02-27T00:00:00.000Z').valueOf();
sats=[{"MEAN_ANOMALY":"269.0866","INCLINATION":"97.6537","ARG_OF_PERICENTER":"91.0688","SITE":"AFWTR","RA_OF_ASC_NODE":"240.4430","ELEMENT_SET_NO":"999","MEAN_MOTION":"15.01267167","GP_ID":"227068223","OBJECT_NAME":"STARLINK-4310","MEAN_MOTION_DOT":"0.00000435","COUNTRY_CODE":"US","ECCENTRICITY":"0.00028810","EPHEMERIS_TYPE":"0","PERIAPSIS":"560.990","PERIOD":"95.919","REV_AT_EPOCH":"3484","REF_FRAME":"TEME","EPOCH":"2023-02-26T18:30:31.340448","SEMIMAJOR_AXIS":"6941.125","RCS_SIZE":"LARGE","OBJECT_ID":"2022-077AH","NORAD_CAT_ID":"53074","MEAN_ELEMENT_THEORY":"SGP4","TIME_SYSTEM":"UTC","TLE_LINE2":"2 53074  97.6537 240.4430 0002881  91.0688 269.0866 15.01267167 34848","BSTAR":"0.00003842900000","MEAN_MOTION_DDOT":"0.0000000000000","FILE":"3843368","LAUNCH_DATE":"2022-07-11","DECAY_DATE":null,"TLE_LINE1":"1 53074U 22077AH  23057.77119607  .00000435  00000-0  38429-4 0  9994","OBJECT_TYPE":"PAYLOAD","CENTER_NAME":"EARTH","CLASSIFICATION_TYPE":"U","APOAPSIS":"564.989"},{"MEAN_MOTION":"15.01264365","GP_ID":"227066502","MEAN_MOTION_DOT":"0.00000354","OBJECT_NAME":"STARLINK-4348","ECCENTRICITY":"0.00020020","COUNTRY_CODE":"US","INCLINATION":"97.6525","MEAN_ANOMALY":"270.4293","RA_OF_ASC_NODE":"240.4299","SITE":"AFWTR","ELEMENT_SET_NO":"999","ARG_OF_PERICENTER":"89.7161","REV_AT_EPOCH":"3484","REF_FRAME":"TEME","EPOCH":"2023-02-26T18:19:51.457728","SEMIMAJOR_AXIS":"6941.133","RCS_SIZE":"LARGE","EPHEMERIS_TYPE":"0","PERIAPSIS":"561.609","PERIOD":"95.919","TLE_LINE2":"2 53075  97.6525 240.4299 0002002  89.7161 270.4293 15.01264365 34841","BSTAR":"0.00003216500000","FILE":"3843368","MEAN_MOTION_DDOT":"0.0000000000000","OBJECT_ID":"2022-077AJ","NORAD_CAT_ID":"53075","TIME_SYSTEM":"UTC","MEAN_ELEMENT_THEORY":"SGP4","OBJECT_TYPE":"PAYLOAD","CENTER_NAME":"EARTH","CLASSIFICATION_TYPE":"U","APOAPSIS":"564.388","LAUNCH_DATE":"2022-07-11","DECAY_DATE":null,"TLE_LINE1":"1 53075U 22077AJ  23057.76379002  .00000354  00000-0  32165-4 0  9992"},{"REV_AT_EPOCH":"3484","REF_FRAME":"TEME","EPOCH":"2023-02-26T18:27:30.156192","SEMIMAJOR_AXIS":"6941.129","RCS_SIZE":"LARGE","EPHEMERIS_TYPE":"0","PERIAPSIS":"561.143","PERIOD":"95.919","MEAN_MOTION":"15.01265899","GP_ID":"227067253","OBJECT_NAME":"STARLINK-4347","MEAN_MOTION_DOT":"0.00000596","COUNTRY_CODE":"US","ECCENTRICITY":"0.00026660","INCLINATION":"97.6539","MEAN_ANOMALY":"270.6140","SITE":"AFWTR","ELEMENT_SET_NO":"999","ARG_OF_PERICENTER":"89.5390","RA_OF_ASC_NODE":"240.4401","OBJECT_TYPE":"PAYLOAD","CENTER_NAME":"EARTH","CLASSIFICATION_TYPE":"U","APOAPSIS":"564.844","LAUNCH_DATE":"2022-07-11","DECAY_DATE":null,"TLE_LINE1":"1 53076U 22077AK  23057.76909903  .00000596  00000-0  51002-4 0  9991","BSTAR":"0.00005100200000","TLE_LINE2":"2 53076  97.6539 240.4401 0002666  89.5390 270.6140 15.01265899 34846","MEAN_MOTION_DDOT":"0.0000000000000","FILE":"3843368","OBJECT_ID":"2022-077AK","NORAD_CAT_ID":"53076","MEAN_ELEMENT_THEORY":"SGP4","TIME_SYSTEM":"UTC"},{"BSTAR":"0.00006582900000","TLE_LINE2":"2 53077  97.6520 240.4255 0002052  95.2688 264.8770 15.01266010 34847","MEAN_MOTION_DDOT":"0.0000000000000","FILE":"3843368","NORAD_CAT_ID":"53077","TIME_SYSTEM":"UTC","MEAN_ELEMENT_THEORY":"SGP4","OBJECT_ID":"2022-077AL","APOAPSIS":"564.418","CLASSIFICATION_TYPE":"U","OBJECT_TYPE":"PAYLOAD","CENTER_NAME":"EARTH","TLE_LINE1":"1 53077U 22077AL  23057.76169266  .00000787  00000-0  65829-4 0  9996","LAUNCH_DATE":"2022-07-11","DECAY_DATE":null,"OBJECT_NAME":"STARLINK-4315","MEAN_MOTION_DOT":"0.00000787","COUNTRY_CODE":"US","ECCENTRICITY":"0.00020520","MEAN_MOTION":"15.01266010","GP_ID":"227067504","MEAN_ANOMALY":"264.8770","INCLINATION":"97.6520","SITE":"AFWTR","ARG_OF_PERICENTER":"95.2688","RA_OF_ASC_NODE":"240.4255","ELEMENT_SET_NO":"999","REF_FRAME":"TEME","SEMIMAJOR_AXIS":"6941.128","RCS_SIZE":"LARGE","EPOCH":"2023-02-26T18:16:50.245824","REV_AT_EPOCH":"3484","PERIOD":"95.919","EPHEMERIS_TYPE":"0","PERIAPSIS":"561.569"},{"INCLINATION":"97.6534","MEAN_ANOMALY":"270.8487","RA_OF_ASC_NODE":"240.4341","SITE":"AFWTR","ARG_OF_PERICENTER":"89.3012","ELEMENT_SET_NO":"999","OBJECT_NAME":"STARLINK-4322","MEAN_MOTION_DOT":"0.00003115","ECCENTRICITY":"0.00023970","COUNTRY_CODE":"US","MEAN_MOTION":"15.01263130","GP_ID":"227067724","PERIOD":"95.919","EPHEMERIS_TYPE":"0","PERIAPSIS":"561.338","REF_FRAME":"TEME","EPOCH":"2023-02-26T18:22:11.387712","RCS_SIZE":"LARGE","SEMIMAJOR_AXIS":"6941.137","REV_AT_EPOCH":"3484","NORAD_CAT_ID":"53078","TIME_SYSTEM":"UTC","MEAN_ELEMENT_THEORY":"SGP4","OBJECT_ID":"2022-077AM","TLE_LINE2":"2 53078  97.6534 240.4341 0002397  89.3012 270.8487 15.01263130 34848","BSTAR":"0.00024701000000","MEAN_MOTION_DDOT":"0.0000000000000","FILE":"3843368","TLE_LINE1":"1 53078U 22077AM  23057.76540958  .00003115  00000-0  24701-3 0  9999","LAUNCH_DATE":"2022-07-11","DECAY_DATE":null,"CLASSIFICATION_TYPE":"U","APOAPSIS":"564.666","OBJECT_TYPE":"PAYLOAD","CENTER_NAME":"EARTH"},{"COUNTRY_CODE":"US","ECCENTRICITY":"0.00019230","MEAN_MOTION_DOT":"0.00000146","OBJECT_NAME":"STARLINK-4327","GP_ID":"227067003","MEAN_MOTION":"15.01266174","SITE":"AFWTR","RA_OF_ASC_NODE":"240.4231","ELEMENT_SET_NO":"999","ARG_OF_PERICENTER":"96.1798","MEAN_ANOMALY":"263.9646","INCLINATION":"97.6518","EPOCH":"2023-02-26T18:14:10.280544","RCS_SIZE":"LARGE","SEMIMAJOR_AXIS":"6941.128","REF_FRAME":"TEME","REV_AT_EPOCH":"3484","PERIOD":"95.919","PERIAPSIS":"561.658","EPHEMERIS_TYPE":"0","MEAN_MOTION_DDOT":"0.0000000000000","FILE":"3843368","BSTAR":"0.00001595200000","TLE_LINE2":"2 53079  97.6518 240.4231 0001923  96.1798 263.9646 15.01266174 34841","MEAN_ELEMENT_THEORY":"SGP4","TIME_SYSTEM":"UTC","NORAD_CAT_ID":"53079","OBJECT_ID":"2022-077AN","CLASSIFICATION_TYPE":"U","APOAPSIS":"564.328","CENTER_NAME":"EARTH","OBJECT_TYPE":"PAYLOAD","TLE_LINE1":"1 53079U 22077AN  23057.75984121  .00000146  00000-0  15952-4 0  9993","DECAY_DATE":null,"LAUNCH_DATE":"2022-07-11"},{"ELEMENT_SET_NO":"999","SITE":"AFWTR","RA_OF_ASC_NODE":"240.4291","ARG_OF_PERICENTER":"91.8864","INCLINATION":"97.6520","MEAN_ANOMALY":"268.2579","COUNTRY_CODE":"US","ECCENTRICITY":"0.00019140","OBJECT_NAME":"STARLINK-4330","MEAN_MOTION_DOT":"-0.00000650","GP_ID":"227067754","MEAN_MOTION":"15.01259658","PERIOD":"95.919","PERIAPSIS":"561.684","EPHEMERIS_TYPE":"0","SEMIMAJOR_AXIS":"6941.148","RCS_SIZE":"MEDIUM","EPOCH":"2023-02-26T18:19:30.491040","REF_FRAME":"TEME","REV_AT_EPOCH":"3484","MEAN_ELEMENT_THEORY":"SGP4","TIME_SYSTEM":"UTC","NORAD_CAT_ID":"53080","OBJECT_ID":"2022-077AP","FILE":"3843368","MEAN_MOTION_DDOT":"0.0000000000000","TLE_LINE2":"2 53080  97.6520 240.4291 0001914  91.8864 268.2579 15.01259658 34840","BSTAR":"-0.00004602600000","TLE_LINE1":"1 53080U 22077AP  23057.76354735 -.00000650  00000-0 -46026-4 0  9996","DECAY_DATE":null,"LAUNCH_DATE":"2022-07-11","APOAPSIS":"564.341","CLASSIFICATION_TYPE":"U","CENTER_NAME":"EARTH","OBJECT_TYPE":"PAYLOAD"},{"TLE_LINE2":"2 53081  97.6534 240.4151 0001745 106.1807 253.9609 15.01269783 34845","BSTAR":"0.00004231600000","FILE":"3843368","MEAN_MOTION_DDOT":"0.0000000000000","OBJECT_ID":"2022-077AQ","NORAD_CAT_ID":"53081","MEAN_ELEMENT_THEORY":"SGP4","TIME_SYSTEM":"UTC","OBJECT_TYPE":"PAYLOAD","CENTER_NAME":"EARTH","APOAPSIS":"564.193","CLASSIFICATION_TYPE":"U","LAUNCH_DATE":"2022-07-11","DECAY_DATE":null,"TLE_LINE1":"1 53081U 22077AQ  23057.75638010  .00000485  00000-0  42316-4 0  9999","MEAN_MOTION":"15.01269783","GP_ID":"227068005","MEAN_MOTION_DOT":"0.00000485","OBJECT_NAME":"STARLINK-4326","ECCENTRICITY":"0.00017450","COUNTRY_CODE":"US","INCLINATION":"97.6534","MEAN_ANOMALY":"253.9609","RA_OF_ASC_NODE":"240.4151","SITE":"AFWTR","ELEMENT_SET_NO":"999","ARG_OF_PERICENTER":"106.1807","REV_AT_EPOCH":"3484","REF_FRAME":"TEME","RCS_SIZE":"LARGE","SEMIMAJOR_AXIS":"6941.117","EPOCH":"2023-02-26T18:09:11.240640","EPHEMERIS_TYPE":"0","PERIAPSIS":"561.770","PERIOD":"95.919"},{"BSTAR":"-0.00007054100000","TLE_LINE2":"2 53082  97.6522 240.4198 0001778  99.0973 261.0453 15.01279655 34840","FILE":"3843368","MEAN_MOTION_DDOT":"0.0000000000000","OBJECT_ID":"2022-077AR","NORAD_CAT_ID":"53082","MEAN_ELEMENT_THEORY":"SGP4","TIME_SYSTEM":"UTC","OBJECT_TYPE":"PAYLOAD","CENTER_NAME":"EARTH","APOAPSIS":"564.185","CLASSIFICATION_TYPE":"U","LAUNCH_DATE":"2022-07-11","DECAY_DATE":null,"TLE_LINE1":"1 53082U 22077AR  23057.75798199 -.00000965  00000-0 -70541-4 0  9991","MEAN_MOTION":"15.01279655","GP_ID":"227068224","MEAN_MOTION_DOT":"-0.00000965","OBJECT_NAME":"STARLINK-4321","ECCENTRICITY":"0.00017780","COUNTRY_CODE":"US","INCLINATION":"97.6522","MEAN_ANOMALY":"261.0453","RA_OF_ASC_NODE":"240.4198","SITE":"AFWTR","ELEMENT_SET_NO":"999","ARG_OF_PERICENTER":"99.0973","REV_AT_EPOCH":"3484","REF_FRAME":"TEME","SEMIMAJOR_AXIS":"6941.086","RCS_SIZE":"LARGE","EPOCH":"2023-02-26T18:11:29.643936","EPHEMERIS_TYPE":"0","PERIAPSIS":"561.717","PERIOD":"95.918"},{"LAUNCH_DATE":"2022-07-11","DECAY_DATE":null,"TLE_LINE1":"1 53083U 22077AS  23057.47839937 -.00006317  00000-0 -48723-3 0  9990","OBJECT_TYPE":"PAYLOAD","CENTER_NAME":"EARTH","APOAPSIS":"564.196","CLASSIFICATION_TYPE":"U","OBJECT_ID":"2022-077AS","NORAD_CAT_ID":"53083","MEAN_ELEMENT_THEORY":"SGP4","TIME_SYSTEM":"UTC","BSTAR":"-0.00048723000000","TLE_LINE2":"2 53083  97.6535 240.1354 0001859 250.0607 110.0417 15.01294335 34800","MEAN_MOTION_DDOT":"0.0000000000000","FILE":"3841853","EPHEMERIS_TYPE":"0","PERIAPSIS":"561.616","PERIOD":"95.917","REV_AT_EPOCH":"3480","REF_FRAME":"TEME","SEMIMAJOR_AXIS":"6941.041","RCS_SIZE":"LARGE","EPOCH":"2023-02-26T11:28:53.705568","MEAN_ANOMALY":"110.0417","INCLINATION":"97.6535","SITE":"AFWTR","ARG_OF_PERICENTER":"250.0607","RA_OF_ASC_NODE":"240.1354","ELEMENT_SET_NO":"999","MEAN_MOTION":"15.01294335","GP_ID":"227008099","MEAN_MOTION_DOT":"-0.00006317","OBJECT_NAME":"STARLINK-4251","ECCENTRICITY":"0.00018590","COUNTRY_CODE":"US"}];
